{"type": "FeatureCollection", "features": [ {"type": "Feature", "properties": {"norad_id": 41556, "name": "ZIYUAN 3-02 (ZY 3-02)", "group": "resource", "lat": -40.50923210779019, "lon": -114.90786148407182, "alt_km": 501.31841695619823, "timestamp": "2025-12-23T11:34:47.839300+00:00", "meta": {"OBJECT_NAME": "ZIYUAN 3-02 (ZY 3-02)", "OBJECT_ID": "2016-033A", "EPOCH": "2025-12-23T04:17:49.758432", "MEAN_MOTION": 15.2119601, "ECCENTRICITY": 0.0011276, "INCLINATION": 97.403, "RA_OF_ASC_NODE": 71.1717, "ARG_OF_PERICENTER": 207.0977, "MEAN_ANOMALY": 152.9672, "EPHEMERIS_TYPE": 0, "CLASSIFICATION_TYPE": "U", "NORAD_CAT_ID": 41556, "ELEMENT_SET_NO": 999, "REV_AT_EPOCH": 53122, "BSTAR": 0.00035869, "MEAN_MOTION_DOT": 7.946e-05, "MEAN_MOTION_DDOT": 0}, "tle": {"line1": "1 41556U 16033A   25357.17904813  .00007946  00000+0  35869-3 0  9998", "line2": "2 41556  97.4030  71.1717 0011276 207.0977 152.9672 15.21196010531220"}}, "geometry": {"type": "Point", "coordinates": [-114.90786148407182, -40.50923210779019]}}, {"type": "Feature", "properties": {"norad_id": 41599, "name": "CARTOSAT-2C", "group": "resource", "lat": 81.09801703151155, "lon": -2.335967321622706, "alt_km": 496.6143587937395, "timestamp": "2025-12-23T11:34:47.839308+00:00", "meta": {"OBJECT_NAME": "CARTOSAT-2C", "OBJECT_ID": "2016-040A", "EPOCH": "2025-12-23T04:53:02.842368", "MEAN_MOTION": 15.19205997, "ECCENTRICITY": 0.0010794, "INCLINATION": 97.4749, "RA_OF_ASC_NODE": 54.3452, "ARG_OF_PERICENTER": 30.4503, "MEAN_ANOMALY": 329.7356, "EPHEMERIS_TYPE": 0, "CLASSIFICATION_TYPE": "U", "NORAD_CAT_ID": 41599, "ELEMENT_SET_NO": 999, "REV_AT_EPOCH": 52699, "BSTAR": 0.00022798, "MEAN_MOTION_DOT": 4.737e-05, "MEAN_MOTION_DDOT": 0}, "tle": {"line1": "1 41599U 16040A   25357.20350512  .00004737  00000+0  22798-3 0  9990", "line2": "2 41599  97.4749  54.3452 0010794  30.4503 329.7356 15.19205997526993"}}, "geometry": {"type": "Point", "coordinates": [-2.335967321622706, 81.09801703151155]}}, {"type": "Feature", "properties": {"norad_id": 41601, "name": "SKYSAT-C1", "group": "resource", "lat": -59.13875309344774, "lon": 45.72169552246834, "alt_km": 474.04488462282734, "timestamp": "2025-12-23T11:34:47.839317+00:00", "meta": {"OBJECT_NAME": "SKYSAT-C1", "OBJECT_ID": "2016-040C", "EPOCH": "2025-12-23T02:26:23.296992", "MEAN_MOTION": 15.32767948, "ECCENTRICITY": 0.000116, "INCLINATION": 96.9802, "RA_OF_ASC_NODE": 33.531, "ARG_OF_PERICENTER": 334.4821, "MEAN_ANOMALY": 25.6365, "EPHEMERIS_TYPE": 0, "CLASSIFICATION_TYPE": "U", "NORAD_CAT_ID": 41601, "ELEMENT_SET_NO": 999, "REV_AT_EPOCH": 53086, "BSTAR": 0.00031966, "MEAN_MOTION_DOT": 0.00010047, "MEAN_MOTION_DDOT": 0}, "tle": {"line1": "1 41601U 16040C   25357.10165853  .00010047  00000+0  31966-3 0  9993", "line2": "2 41601  96.9802  33.5310 0001160 334.4821  25.6365 15.32767948530867"}}, "geometry": {"type": "Point", "coordinates": [45.72169552246834, -59.13875309344774]}}, {"type": "Feature", "properties": {"norad_id": 41603, "name": "LAPAN-A3", "group": "resource", "lat": 41.596869220714495, "lon": -11.743815752553871, "alt_km": 469.9355325291699, "timestamp": "2025-12-23T11:34:47.839327+00:00", "meta": {"OBJECT_NAME": "LAPAN-A3", "OBJECT_ID": "2016-040E", "EPOCH": "2025-12-23T05:07:31.138176", "MEAN_MOTION": 15.31633139, "ECCENTRICITY": 0.0008741, "INCLINATION": 97.143, "RA_OF_ASC_NODE": 354.3889, "ARG_OF_PERICENTER": 290.7067, "MEAN_ANOMALY": 69.3238, "EPHEMERIS_TYPE": 0, "CLASSIFICATION_TYPE": "U", "NORAD_CAT_ID": 41603, "ELEMENT_SET_NO": 999, "REV_AT_EPOCH": 52786, "BSTAR": 0.00015581, "MEAN_MOTION_DOT": 4.689e-05, "MEAN_MOTION_DDOT": 0}, "tle": {"line1": "1 41603U 16040E   25357.21355484  .00004689  00000+0  15581-3 0  9998", "line2": "2 41603  97.1430 354.3889 0008741 290.7067  69.3238 15.31633139527865"}}, "geometry": {"type": "Point", "coordinates": [-11.743815752553871, 41.596869220714495]}}, {"type": "Feature", "properties": {"norad_id": 41604, "name": "BIROS", "group": "resource", "lat": 28.559012884103225, "lon": 25.506504617752285, "alt_km": 290.6640044023288, "timestamp": "2025-12-23T11:34:47.839336+00:00", "meta": {"OBJECT_NAME": "BIROS", "OBJECT_ID": "2016-040F", "EPOCH": "2025-12-23T00:54:41.222304", "MEAN_MOTION": 15.93712142, "ECCENTRICITY": 0.0003792, "INCLINATION": 97.067, "RA_OF_ASC_NODE": 28.9133, "ARG_OF_PERICENTER": 129.7524, "MEAN_ANOMALY": 230.4087, "EPHEMERIS_TYPE": 0, "CLASSIFICATION_TYPE": "U", "NORAD_CAT_ID": 41604, "ELEMENT_SET_NO": 999, "REV_AT_EPOCH": 53036, "BSTAR": 0.0006125, "MEAN_MOTION_DOT": 0.00219845, "MEAN_MOTION_DDOT": 2.0271e-05}, "tle": {"line1": "1 41604U 16040F   25357.03797711  .00219845  20271-4  61250-3 0  9995", "line2": "2 41604  97.0670  28.9133 0003792 129.7524 230.4087 15.93712142530369"}}, "geometry": {"type": "Point", "coordinates": [25.506504617752285, 28.559012884103225]}}, {"type": "Feature", "properties": {"norad_id": 41727, "name": "GAOFEN-3", "group": "resource", "lat": -31.03151767702131, "lon": 8.006484203188029, "alt_km": 757.1225615903759, "timestamp": "2025-12-23T11:34:47.839345+00:00", "meta": {"OBJECT_NAME": "GAOFEN-3", "OBJECT_ID": "2016-049A", "EPOCH": "2025-12-23T05:03:53.913024", "MEAN_MOTION": 14.42216252, "ECCENTRICITY": 0.0001166, "INCLINATION": 98.4031, "RA_OF_ASC_NODE": 2.6372, "ARG_OF_PERICENTER": 55.7169, "MEAN_ANOMALY": 304.4131, "EPHEMERIS_TYPE": 0, "CLASSIFICATION_TYPE": "U", "NORAD_CAT_ID": 41727, "ELEMENT_SET_NO": 999, "REV_AT_EPOCH": 49328, "BSTAR": 5.5599e-05, "MEAN_MOTION_DOT": 1.4e-06, "MEAN_MOTION_DDOT": 0}, "tle": {"line1": "1 41727U 16049A   25357.21104066  .00000140  00000+0  55599-4 0  9994", "line2": "2 41727  98.4031   2.6372 0001166  55.7169 304.4131 14.42216252493286"}}, "geometry": {"type": "Point", "coordinates": [8.006484203188029, -31.03151767702131]}}, {"type": "Feature", "properties": {"norad_id": 41771, "name": "SKYSAT-C4", "group": "resource", "lat": -69.41486519622609, "lon": -176.7646338194029, "alt_km": 446.87787184685294, "timestamp": "2025-12-23T11:34:47.839354+00:00", "meta": {"OBJECT_NAME": "SKYSAT-C4", "OBJECT_ID": "2016-058B", "EPOCH": "2025-12-23T01:09:20.907360", "MEAN_MOTION": 15.42530983, "ECCENTRICITY": 0.0002387, "INCLINATION": 96.9361, "RA_OF_ASC_NODE": 21.7353, "ARG_OF_PERICENTER": 125.8934, "MEAN_ANOMALY": 234.2537, "EPHEMERIS_TYPE": 0, "CLASSIFICATION_TYPE": "U", "NORAD_CAT_ID": 41771, "ELEMENT_SET_NO": 999, "REV_AT_EPOCH": 51826, "BSTAR": 0.00036205, "MEAN_MOTION_DOT": 0.00015641, "MEAN_MOTION_DDOT": 0}, "tle": {"line1": "1 41771U 16058B   25357.04815865  .00015641  00000+0  36205-3 0  9994", "line2": "2 41771  96.9361  21.7353 0002387 125.8934 234.2537 15.42530983518267"}}, "geometry": {"type": "Point", "coordinates": [-176.7646338194029, -69.41486519622609]}}, {"type": "Feature", "properties": {"norad_id": 41772, "name": "SKYSAT-C5", "group": "resource", "lat": -24.02700774612529, "lon": -142.388385657733, "alt_km": 467.20407142816475, "timestamp": "2025-12-23T11:34:47.839363+00:00", "meta": {"OBJECT_NAME": "SKYSAT-C5", "OBJECT_ID": "2016-058C", "EPOCH": "2025-12-22T20:36:11.255904", "MEAN_MOTION": 15.3404884, "ECCENTRICITY": 0.0003865, "INCLINATION": 97.0737, "RA_OF_ASC_NODE": 40.1871, "ARG_OF_PERICENTER": 242.4795, "MEAN_ANOMALY": 117.6056, "EPHEMERIS_TYPE": 0, "CLASSIFICATION_TYPE": "U", "NORAD_CAT_ID": 41772, "ELEMENT_SET_NO": 999, "REV_AT_EPOCH": 51671, "BSTAR": 0.00031468, "MEAN_MOTION_DOT": 0.00010298, "MEAN_MOTION_DDOT": 0}, "tle": {"line1": "1 41772U 16058C   25356.85846361  .00010298  00000+0  31468-3 0  9997", "line2": "2 41772  97.0737  40.1871 0003865 242.4795 117.6056 15.34048840516715"}}, "geometry": {"type": "Point", "coordinates": [-142.388385657733, -24.02700774612529]}}, {"type": "Feature", "properties": {"norad_id": 41773, "name": "SKYSAT-C2", "group": "resource", "lat": -18.152446122576176, "lon": 23.87471307065988, "alt_km": 456.6512409022898, "timestamp": "2025-12-23T11:34:47.839372+00:00", "meta": {"OBJECT_NAME": "SKYSAT-C2", "OBJECT_ID": "2016-058D", "EPOCH": "2025-12-22T13:47:28.316256", "MEAN_MOTION": 15.37479301, "ECCENTRICITY": 0.00031137, "INCLINATION": 97.0346, "RA_OF_ASC_NODE": 20.6848, "ARG_OF_PERICENTER": 5.7873, "MEAN_ANOMALY": 354.3408, "EPHEMERIS_TYPE": 0, "CLASSIFICATION_TYPE": "U", "NORAD_CAT_ID": 41773, "ELEMENT_SET_NO": 999, "REV_AT_EPOCH": 51787, "BSTAR": 0.00032762855, "MEAN_MOTION_DOT": 0.00011972, "MEAN_MOTION_DDOT": 0}, "tle": {"line1": "1 41773U 16058D   25356.57463329  .00011972  00000+0  32763-3 0  9995", "line2": "2 41773  97.0346  20.6848 0003113   5.7873 354.3408 15.37479301517874"}}, "geometry": {"type": "Point", "coordinates": [23.87471307065988, -18.152446122576176]}}, {"type": "Feature", "properties": {"norad_id": 41774, "name": "SKYSAT-C3", "group": "resource", "lat": 82.82613071955817, "lon": -44.31223415667616, "alt_km": 423.24123101575606, "timestamp": "2025-12-23T11:34:47.839381+00:00", "meta": {"OBJECT_NAME": "SKYSAT-C3", "OBJECT_ID": "2016-058E", "EPOCH": "2025-12-23T01:52:18.674688", "MEAN_MOTION": 15.4475041, "ECCENTRICITY": 0.0002087, "INCLINATION": 96.9283, "RA_OF_ASC_NODE": 30.3439, "ARG_OF_PERICENTER": 106.8529, "MEAN_ANOMALY": 253.2949, "EPHEMERIS_TYPE": 0, "CLASSIFICATION_TYPE": "U", "NORAD_CAT_ID": 41774, "ELEMENT_SET_NO": 999, "REV_AT_EPOCH": 51885, "BSTAR": 0.00042585, "MEAN_MOTION_DOT": 0.0001985, "MEAN_MOTION_DDOT": 0}, "tle": {"line1": "1 41774U 16058E   25357.07799392  .00019850  00000+0  42585-3 0  9990", "line2": "2 41774  96.9283  30.3439 0002087 106.8529 253.2949 15.44750410518854"}}, "geometry": {"type": "Point", "coordinates": [-44.31223415667616, 82.82613071955817]}}]}